[{"OBJECT_NAME":"STARLINK-5989","OBJECT_ID":"2023-078Q","EPOCH":"2026-03-09T22:12:22.338720","MEAN_MOTION":14.98329872,"ECCENTRICITY":0.00025713,"INCLINATION":70.0007,"RA_OF_ASC_NODE":343.94,"ARG_OF_PERICENTER":272.6629,"MEAN_ANOMALY":87.4236,"EPHEMERIS_TYPE":0,"CLASSIFICATION_TYPE":"U","NORAD_CAT_ID":56781,"ELEMENT_SET_NO":999,"REV_AT_EPOCH":15271,"BSTAR":-2.2868689e-5,"MEAN_MOTION_DOT":-3.66e-6,"MEAN_MOTION_DDOT":0},{"OBJECT_NAME":"ICEYE-X43","OBJECT_ID":"2024-149BZ","EPOCH":"2026-03-09T22:37:06.906720","MEAN_MOTION":14.99337202,"ECCENTRICITY":0.00024583,"INCLINATION":97.6823,"RA_OF_ASC_NODE":147.2527,"ARG_OF_PERICENTER":59.9226,"MEAN_ANOMALY":300.2241,"EPHEMERIS_TYPE":0,"CLASSIFICATION_TYPE":"U","NORAD_CAT_ID":60539,"ELEMENT_SET_NO":999,"REV_AT_EPOCH":8524,"BSTAR":0.00036668005,"MEAN_MOTION_DOT":4.424e-5,"MEAN_MOTION_DDOT":0}]
